OBJECT_NAME,OBJECT_ID,EPOCH,MEAN_MOTION,ECCENTRICITY,INCLINATION,RA_OF_ASC_NODE,ARG_OF_PERICENTER,MEAN_ANOMALY,EPHEMERIS_TYPE,CLASSIFICATION_TYPE,NORAD_CAT_ID,ELEMENT_SET_NO,REV_AT_EPOCH,BSTAR,MEAN_MOTION_DOT,MEAN_MOTION_DDOT
STARLINK-35119,2025-198S,2026-07-19T16:56:55.147776,15.34397440,.0001157,53.1596,15.5827,92.4193,267.6942,0,U,65508,999,4886,.23488E-3,.7567E-4,0
STARLINK-35168,2025-198T,2026-07-19T18:06:28.442304,15.34399561,.0001086,53.1608,15.1697,77.4126,282.6998,0,U,65509,999,4887,.38164E-3,.12539E-3,0
STARLINK-35122,2025-198U,2026-07-19T20:37:42.534048,15.34393497,.0001275,53.1610,14.4015,85.5866,274.5282,0,U,65510,999,4889,.19142E-3,.6095E-4,0
STARLINK-35124,2025-198V,2026-07-19T17:11:57.493824,15.34413893,.0001239,53.1595,14.9327,90.9169,269.1975,0,U,65511,999,4886,.48162E-3,.15938E-3,0
STARLINK-35149,2025-198W,2026-07-19T18:03:26.456256,15.34398497,.000135,53.1608,15.1509,121.4631,238.6503,0,U,65512,999,4887,.33801E-3,.1106E-3,0
STARLINK-35019,2025-198X,2026-07-19T18:12:32.092128,15.34392961,.0001225,53.1591,15.1918,89.6883,270.4260,0,U,65513,999,4887,.3499E-3,.11461E-3,0
STARLINK-35026,2025-198Y,2026-07-19T18:25:20.989056,15.34403976,.0001163,53.1604,16.6670,94.1471,265.9664,0,U,65514,999,4885,.35245E-3,.11552E-3,0
STARLINK-35241,2025-198Z,2026-07-19T18:07:16.610304,15.34414338,.0000938,53.1620,17.2960,38.5014,321.6055,0,U,65515,999,4884,.10389E-3,.3137E-4,0
STARLINK-35216,2025-198AA,2026-07-19T18:55:38.920224,15.34406232,.0001063,53.1615,16.7966,87.3913,272.7212,0,U,65516,999,4885,.47822E-3,.15818E-3,0
STARLINK-35228,2025-198AB,2026-07-19T20:31:38.671680,15.34400102,.0001241,53.1592,14.3714,102.8540,257.2601,0,U,65517,999,4889,.32054E-3,.10469E-3,0
STARLINK-35232,2025-198AC,2026-07-19T18:33:44.498880,15.34402813,.0001104,53.1596,15.2812,90.6662,269.4467,0,U,65518,999,4887,.41741E-3,.13754E-3,0
STARLINK-35164,2025-198AD,2026-07-19T18:24:39.155040,15.34395278,.000102,53.1594,15.2401,78.6503,281.4614,0,U,65519,999,4887,.30851E-3,.1006E-3,0
STARLINK-35112,2025-200A,2026-07-19T16:59:22.535808,15.33447721,.000091,97.2829,268.0686,120.9903,239.1429,0,U,65520,999,4901,.24224E-3,.7754E-4,0
STARLINK-35187,2025-200B,2026-07-19T20:00:01.999008,15.33470935,.0001208,97.2836,268.1015,97.6743,339.5420,0,U,65521,999,573,-.18946E-2,-.60802E-3,0
STARLINK-35188,2025-200C,2026-07-19T20:00:01.999008,15.33472065,.0001432,97.2842,268.1462,90.8716,91.3388,0,U,65522,999,578,-.18125E-2,-.58191E-3,0
STARLINK-35078,2025-200D,2026-07-19T18:37:15.994848,15.33443232,.0001344,97.2832,268.1370,87.0167,273.1229,0,U,65523,999,4903,.20164E-3,.644E-4,0
STARLINK-35055,2025-200E,2026-07-19T17:11:07.783584,15.33449743,.0001179,97.2843,268.0669,89.5326,270.6051,0,U,65524,999,4902,.37373E-3,.12011E-3,0
STARLINK-35057,2025-200F,2026-07-19T17:07:12.792000,15.33450695,.0001188,97.2841,268.0734,42.6835,317.4500,0,U,65525,999,4902,.40495E-3,.13023E-3,0
STARLINK-34674,2025-200G,2026-07-19T20:00:01.999008,15.33474327,.0001605,97.2836,268.1085,82.0152,10.1927,0,U,65526,999,568,-.18033E-2,-.57905E-3,0
STARLINK-35067,2025-200H,2026-07-19T17:54:11.795904,15.33442128,.0000454,97.2835,268.0292,92.9076,267.2219,0,U,65527,999,4901,.32431E-3,.10408E-3,0
STARLINK-35063,2025-200J,2026-07-19T20:00:01.999008,15.33476581,.0001479,97.2842,268.1416,91.7896,75.4198,0,U,65528,999,567,-.17635E-2,-.5664E-3,0
STARLINK-35077,2025-200K,2026-07-19T18:21:35.982720,15.33448845,.0000387,97.2840,268.0028,160.2240,199.9018,0,U,65529,999,4902,.41019E-3,.13192E-3,0
STARLINK-35152,2025-200L,2026-07-19T20:00:01.999008,15.33472678,.0001495,97.2837,268.1137,88.7439,18.4595,0,U,65530,999,558,-.18991E-2,-.60949E-3,0
STARLINK-35064,2025-200M,2026-07-19T20:00:01.999008,15.33481913,.0001376,97.2834,268.0877,94.2199,312.9762,0,U,65531,999,578,-.19015E-2,-.61043E-3,0
STARLINK-35170,2025-200N,2026-07-19T17:18:57.763296,15.33443395,.0001625,97.2831,268.0675,108.7565,251.3854,0,U,65532,999,4902,.22322E-3,.7138E-4,0
STARLINK-35172,2025-200P,2026-07-19T17:26:47.095872,15.33451663,.0001118,97.2833,268.0534,91.7140,268.4230,0,U,65533,999,4902,.23148E-3,.7407E-4,0
STARLINK-35125,2025-200Q,2026-07-19T17:30:42.249024,15.33448526,.000081,97.2841,268.0522,81.3768,278.7566,0,U,65534,999,4902,.30956E-3,.9933E-4,0
STARLINK-35133,2025-200R,2026-07-19T17:15:02.505600,15.33451675,.0001453,97.2828,268.0678,98.0297,262.1110,0,U,65535,999,4902,.38119E-3,.12254E-3,0
STARLINK-35044,2025-200S,2026-07-19T18:25:31.344960,15.33446467,.0001348,97.2831,268.1520,87.0953,273.0444,0,U,65536,999,4903,.28445E-3,.912E-4,0
STARLINK-35136,2025-200T,2026-07-19T18:29:26.168064,15.33439218,.0001798,97.2837,268.1413,92.1367,268.0082,0,U,65537,999,4894,.24049E-3,.7696E-4,0
