STARLINK-35119          
1 65508U 25198S   26200.70619384  .00007567  00000+0  23488-3 0  9999
2 65508  53.1596  15.5827 0001157  92.4193 267.6942 15.34397440 48867
STARLINK-35168          
1 65509U 25198T   26200.75449586  .00012539  00000+0  38164-3 0  9992
2 65509  53.1608  15.1697 0001086  77.4126 282.6998 15.34399561 48878
STARLINK-35122          
1 65510U 25198U   26200.85952007  .00006095  00000+0  19142-3 0  9997
2 65510  53.1610  14.4015 0001275  85.5866 274.5282 15.34393497 48890
STARLINK-35124          
1 65511U 25198V   26200.71663766  .00015938  00000+0  48162-3 0  9994
2 65511  53.1595  14.9327 0001239  90.9169 269.1975 15.34413893 48869
STARLINK-35149          
1 65512U 25198W   26200.75238954  .00011060  00000+0  33801-3 0  9992
2 65512  53.1608  15.1509 0001350 121.4631 238.6503 15.34398497 48879
STARLINK-35019          
1 65513U 25198X   26200.75870477  .00011461  00000+0  34990-3 0  9990
2 65513  53.1591  15.1918 0001225  89.6883 270.4260 15.34392961 48874
STARLINK-35026          
1 65514U 25198Y   26200.76760404  .00011552  00000+0  35245-3 0  9995
2 65514  53.1604  16.6670 0001163  94.1471 265.9664 15.34403976 48850
STARLINK-35241          
1 65515U 25198Z   26200.75505336  .00003137  00000+0  10389-3 0  9998
2 65515  53.1620  17.2960 0000938  38.5014 321.6055 15.34414338 48849
STARLINK-35216          
1 65516U 25198AA  26200.78864491  .00015818  00000+0  47822-3 0  9993
2 65516  53.1615  16.7966 0001063  87.3913 272.7212 15.34406232 48850
STARLINK-35228          
1 65517U 25198AB  26200.85530870  .00010469  00000+0  32054-3 0  9991
2 65517  53.1592  14.3714 0001241 102.8540 257.2601 15.34400102 48891
STARLINK-35232          
1 65518U 25198AC  26200.77343170  .00013754  00000+0  41741-3 0  9991
2 65518  53.1596  15.2812 0001104  90.6662 269.4467 15.34402813 48876
STARLINK-35164          
1 65519U 25198AD  26200.76711985  .00010060  00000+0  30851-3 0  9991
2 65519  53.1594  15.2401 0001020  78.6503 281.4614 15.34395278 48870
STARLINK-35112          
1 65520U 25200A   26200.70789972  .00007754  00000+0  24224-3 0  9995
2 65520  97.2829 268.0686 0000910 120.9903 239.1429 15.33447721 49018
STARLINK-35187          
1 65521U 25200B   26200.83335647 -.00060802  00000+0 -18946-2 0  9994
2 65521  97.2836 268.1015 0001208  97.6743 339.5420 15.33470935  5737
STARLINK-35188          
1 65522U 25200C   26200.83335647 -.00058191  00000+0 -18125-2 0  9992
2 65522  97.2842 268.1462 0001432  90.8716  91.3388 15.33472065  5782
STARLINK-35078          
1 65523U 25200D   26200.77587957  .00006440  00000+0  20164-3 0  9994
2 65523  97.2832 268.1370 0001344  87.0167 273.1229 15.33443232 49034
STARLINK-35055          
1 65524U 25200E   26200.71606231  .00012011  00000+0  37373-3 0  9997
2 65524  97.2843 268.0669 0001179  89.5326 270.6051 15.33449743 49024
STARLINK-35057          
1 65525U 25200F   26200.71334250  .00013023  00000+0  40495-3 0  9990
2 65525  97.2841 268.0734 0001188  42.6835 317.4500 15.33450695 49028
STARLINK-34674          
1 65526U 25200G   26200.83335647 -.00057905  00000+0 -18033-2 0  9996
2 65526  97.2836 268.1085 0001605  82.0152  10.1927 15.33474327  5689
STARLINK-35067          
1 65527U 25200H   26200.74596986  .00010408  00000+0  32431-3 0  9996
2 65527  97.2835 268.0292 0000454  92.9076 267.2219 15.33442128 49012
STARLINK-35063          
1 65528U 25200J   26200.83335647 -.00056640  00000+0 -17635-2 0  9990
2 65528  97.2842 268.1416 0001479  91.7896  75.4198 15.33476581  5674
STARLINK-35077          
1 65529U 25200K   26200.76499980  .00013192  00000+0  41019-3 0  9991
2 65529  97.2840 268.0028 0000387 160.2240 199.9018 15.33448845 49025
STARLINK-35152          
1 65530U 25200L   26200.83335647 -.00060949  00000+0 -18991-2 0  9996
2 65530  97.2837 268.1137 0001495  88.7439  18.4595 15.33472678  5589
STARLINK-35064          
1 65531U 25200M   26200.83335647 -.00061043  00000+0 -19015-2 0  9991
2 65531  97.2834 268.0877 0001376  94.2199 312.9762 15.33481913  5782
STARLINK-35170          
1 65532U 25200N   26200.72150189  .00007138  00000+0  22322-3 0  9995
2 65532  97.2831 268.0675 0001625 108.7565 251.3854 15.33443395 49026
STARLINK-35172          
1 65533U 25200P   26200.72693398  .00007407  00000+0  23148-3 0  9996
2 65533  97.2833 268.0534 0001118  91.7140 268.4230 15.33451663 49024
STARLINK-35125          
1 65534U 25200Q   26200.72965566  .00009933  00000+0  30956-3 0  9997
2 65534  97.2841 268.0522 0000810  81.3768 278.7566 15.33448526 49020
STARLINK-35133          
1 65535U 25200R   26200.71877900  .00012254  00000+0  38119-3 0  9990
2 65535  97.2828 268.0678 0001453  98.0297 262.1110 15.33451675 49025
STARLINK-35044          
1 65536U 25200S   26200.76772390  .00009120  00000+0  28445-3 0  9992
2 65536  97.2831 268.1520 0001348  87.0953 273.0444 15.33446467 49032
STARLINK-35136          
1 65537U 25200T   26200.77044176  .00007696  00000+0  24049-3 0  9990
2 65537  97.2837 268.1413 0001798  92.1367 268.0082 15.33439218 48942
